ONEWEB-0258             
1 48976U 21060K   24350.93828732  .00000008  00000+0 -11455-4 0  9997
2 48976  87.9084 338.0261 0001736  89.0139 271.1191 13.16594129168730
ONEWEB-0259             
1 48977U 21060L   24351.38793755  .00000001  00000+0 -29853-4 0  9998
2 48977  87.9084 337.9208 0001649  92.9926 267.1394 13.16593248168832
ONEWEB-0260             
1 48978U 21060M   24350.69525119  .00000013  00000+0  25639-6 0  9991
2 48978  87.9080 338.0883 0002094  73.8605 286.2756 13.16592141167437
ONEWEB-0261             
1 48979U 21060N   24351.19714711  .00000049  00000+0  93858-4 0  9991
2 48979  87.9086 337.9871 0001452  71.1098 289.0190 13.16596648168859
ONEWEB-0262             
1 48980U 21060P   24350.72137928  .00000079  00000+0  17364-3 0  9990
2 48980  87.9084 338.0405 0001548  95.5051 264.6257 13.16593559167455
ONEWEB-0263             
1 48981U 21060Q   24351.43701541  .00000035  00000+0  56760-4 0  9994
2 48981  87.9087 337.9200 0001321  81.4873 278.6407 13.16595533168812
ONEWEB-0264             
1 48982U 21060R   24351.24623312 -.00000061  00000+0 -19364-3 0  9992
2 48982  87.9086 337.9680 0001709  85.5953 274.5374 13.16593887168782
ONEWEB-0266             
1 48984U 21060T   24351.41959806  .00000114  00000+0  26558-3 0  9993
2 48984  87.9078 337.9064 0001796  92.0229 268.1107 13.16594087168805
